QIANFAN-81              
1 63167U 25046J   26025.11194818  .00000180  00000+0  25955-3 0  9995
2 63167  88.9796 315.3913 0015461   3.4368 356.6887 13.50967762 53342
QIANFAN-82              
1 63168U 25046K   26025.14682914  .00000294  00000+0  43656-3 0  9992
2 63168  88.9797 315.4318 0013803  10.7883 349.3561 13.50995048 53330
QIANFAN-83              
1 63169U 25046L   26025.11750039  .00000364  00000+0  45602-3 0  9995
2 63169  88.9797 315.1261 0014497 354.2583   5.8406 13.61998909 53500
QIANFAN-84              
1 63170U 25046M   26025.17430053  .00000275  00000+0  40676-3 0  9991
2 63170  88.9796 315.5614 0016642   6.0735 354.0615 13.51004447 53260
QIANFAN-85              
1 63171U 25046N   26025.17139031  .00000276  00000+0  40941-3 0  9990
2 63171  88.9796 315.4334 0014134   9.4409 350.7005 13.50993852 53338
QIANFAN-86              
1 63172U 25046P   26025.17970499  .00000291  00000+0  43268-3 0  9994
2 63172  88.9798 315.2957 0012151  14.6087 345.5413 13.50995775 53417
QIANFAN-87              
1 63173U 25046Q   26025.15110623  .00000294  00000+0  43661-3 0  9998
2 63173  88.9794 315.4086 0012650   9.9634 350.1765 13.50993274 53344
QIANFAN-88              
1 63174U 25046R   26025.16724472  .00000241  00000+0  35449-3 0  9990
2 63174  88.9797 315.3626 0013299  17.2246 342.9354 13.50987895 53376
